{
  "type": "FeatureCollection",
  "features": [
    {
      "type": "Feature",
      "properties": {
        "norad_id": 37280,
        "name": "COSMOS 2251 DEB",
        "group": "cosmos-2251-debris",
        "lat": -24.599938627555947,
        "lon": -112.80961857561685,
        "alt_km": 742.2585448709606,
        "timestamp": "2025-12-11T07:02:24.128509+00:00",
        "meta_object_name": "COSMOS 2251 DEB",
        "meta_object_id": "1993-036BHU",
        "meta_epoch": "2025-12-07T22:33:59.390208",
        "meta_mean_motion": 14.19261757,
        "meta_eccentricity": 0.01314572,
        "meta_inclination": 74.0315,
        "meta_ra_of_asc_node": 65.6486,
        "meta_arg_of_pericenter": 195.2525,
        "meta_mean_anomaly": 164.4641,
        "meta_ephemeris_type": 0,
        "meta_classification_type": "U",
        "meta_norad_cat_id": 37280,
        "meta_element_set_no": 999,
        "meta_rev_at_epoch": 57255,
        "meta_bstar": 0.0024447431,
        "meta_mean_motion_dot": 5.567e-05,
        "meta_mean_motion_ddot": 0,
        "tle_line1": "1 37280U 93036BHU 25341.94027072  .00005567  00000+0  24447-2 0  9992",
        "tle_line2": "2 37280  74.0315  65.6486 0131457 195.2525 164.4641 14.19261757572550"
      },
      "geometry": {
        "type": "Point",
        "coordinates": [
          -112.80961857561685,
          -24.599938627555947
        ]
      }
    },
    {
      "type": "Feature",
      "properties": {
        "norad_id": 37284,
        "name": "COSMOS 2251 DEB",
        "group": "cosmos-2251-debris",
        "lat": -54.149374234728,
        "lon": 2.662788876577897,
        "alt_km": 823.123252847332,
        "timestamp": "2025-12-11T07:02:24.128519+00:00",
        "meta_object_name": "COSMOS 2251 DEB",
        "meta_object_id": "1993-036BHY",
        "meta_epoch": "2025-12-10T18:04:20.469216",
        "meta_mean_motion": 14.12686618,
        "meta_eccentricity": 0.01605026,
        "meta_inclination": 74.0123,
        "meta_ra_of_asc_node": 160.2425,
        "meta_arg_of_pericenter": 312.4867,
        "meta_mean_anomaly": 59.8736,
        "meta_ephemeris_type": 0,
        "meta_classification_type": "U",
        "meta_norad_cat_id": 37284,
        "meta_element_set_no": 999,
        "meta_rev_at_epoch": 59147,
        "meta_bstar": 0.001592138,
        "meta_mean_motion_dot": 3.31e-05,
        "meta_mean_motion_ddot": 0,
        "tle_line1": "1 37284U 93036BHY 25344.75301469  .00003310  00000+0  15921-2 0  9994",
        "tle_line2": "2 37284  74.0123 160.2425 0160502 312.4867  59.8736 14.12686618591475"
      },
      "geometry": {
        "type": "Point",
        "coordinates": [
          2.662788876577897,
          -54.149374234728
        ]
      }
    },
    {
      "type": "Feature",
      "properties": {
        "norad_id": 37292,
        "name": "COSMOS 2251 DEB",
        "group": "cosmos-2251-debris",
        "lat": 47.219026246344086,
        "lon": 70.18104859972982,
        "alt_km": 726.0649592743084,
        "timestamp": "2025-12-11T07:02:24.128530+00:00",
        "meta_object_name": "COSMOS 2251 DEB",
        "meta_object_id": "1993-036BJG",
        "meta_epoch": "2025-12-02T14:04:30.366912",
        "meta_mean_motion": 14.03226454,
        "meta_eccentricity": 0.02102512,
        "meta_inclination": 74.129,
        "meta_ra_of_asc_node": 67.3453,
        "meta_arg_of_pericenter": 73.1105,
        "meta_mean_anomaly": 289.2966,
        "meta_ephemeris_type": 0,
        "meta_classification_type": "U",
        "meta_norad_cat_id": 37292,
        "meta_element_set_no": 999,
        "meta_rev_at_epoch": 59706,
        "meta_bstar": 0.0022453288,
        "meta_mean_motion_dot": 4.236e-05,
        "meta_mean_motion_ddot": 0,
        "tle_line1": "1 37292U 93036BJG 25336.58646258  .00004236  00000+0  22453-2 0  9999",
        "tle_line2": "2 37292  74.1290  67.3453 0210251  73.1105 289.2966 14.03226454597064"
      },
      "geometry": {
        "type": "Point",
        "coordinates": [
          70.18104859972982,
          47.219026246344086
        ]
      }
    },
    {
      "type": "Feature",
      "properties": {
        "norad_id": 37295,
        "name": "COSMOS 2251 DEB",
        "group": "cosmos-2251-debris",
        "lat": 1.8221697346587444,
        "lon": -75.06443326825084,
        "alt_km": 685.1528724229211,
        "timestamp": "2025-12-11T07:02:24.128541+00:00",
        "meta_object_name": "COSMOS 2251 DEB",
        "meta_object_id": "1993-036BJK",
        "meta_epoch": "2025-12-10T06:27:05.450112",
        "meta_mean_motion": 14.65213033,
        "meta_eccentricity": 0.0043773,
        "meta_inclination": 74.0068,
        "meta_ra_of_asc_node": 286.3868,
        "meta_arg_of_pericenter": 106.4238,
        "meta_mean_anomaly": 254.1748,
        "meta_ephemeris_type": 0,
        "meta_classification_type": "U",
        "meta_norad_cat_id": 37295,
        "meta_element_set_no": 999,
        "meta_rev_at_epoch": 82268,
        "meta_bstar": 0.00088834,
        "meta_mean_motion_dot": 4.823e-05,
        "meta_mean_motion_ddot": 0,
        "tle_line1": "1 37295U 93036BJK 25344.26881308  .00004823  00000+0  88834-3 0  9991",
        "tle_line2": "2 37295  74.0068 286.3868 0043773 106.4238 254.1748 14.65213033822687"
      },
      "geometry": {
        "type": "Point",
        "coordinates": [
          -75.06443326825084,
          1.8221697346587444
        ]
      }
    },
    {
      "type": "Feature",
      "properties": {
        "norad_id": 37305,
        "name": "COSMOS 2251 DEB",
        "group": "cosmos-2251-debris",
        "lat": -59.6456204948559,
        "lon": -96.4138438669522,
        "alt_km": 751.4277562900052,
        "timestamp": "2025-12-11T07:02:24.128551+00:00",
        "meta_object_name": "COSMOS 2251 DEB",
        "meta_object_id": "1993-036BJV",
        "meta_epoch": "2025-12-10T14:37:05.458080",
        "meta_mean_motion": 14.36123744,
        "meta_eccentricity": 0.005028,
        "meta_inclination": 73.8703,
        "meta_ra_of_asc_node": 294.4681,
        "meta_arg_of_pericenter": 255.1941,
        "meta_mean_anomaly": 104.3638,
        "meta_ephemeris_type": 0,
        "meta_classification_type": "U",
        "meta_norad_cat_id": 37305,
        "meta_element_set_no": 999,
        "meta_rev_at_epoch": 66836,
        "meta_bstar": 0.0011247,
        "meta_mean_motion_dot": 3.297e-05,
        "meta_mean_motion_ddot": 0,
        "tle_line1": "1 37305U 93036BJV 25344.60909095  .00003297  00000+0  11247-2 0  9992",
        "tle_line2": "2 37305  73.8703 294.4681 0050280 255.1941 104.3638 14.36123744668363"
      },
      "geometry": {
        "type": "Point",
        "coordinates": [
          -96.4138438669522,
          -59.6456204948559
        ]
      }
    },
    {
      "type": "Feature",
      "properties": {
        "norad_id": 37312,
        "name": "COSMOS 2251 DEB",
        "group": "cosmos-2251-debris",
        "lat": -67.40824491614808,
        "lon": 163.39569625067014,
        "alt_km": 733.3376425467086,
        "timestamp": "2025-12-11T07:02:24.128562+00:00",
        "meta_object_name": "COSMOS 2251 DEB",
        "meta_object_id": "1993-036BKC",
        "meta_epoch": "2025-12-09T00:35:23.995392",
        "meta_mean_motion": 14.46107555,
        "meta_eccentricity": 0.00182852,
        "meta_inclination": 74.0311,
        "meta_ra_of_asc_node": 211.115,
        "meta_arg_of_pericenter": 314.7028,
        "meta_mean_anomaly": 45.264,
        "meta_ephemeris_type": 0,
        "meta_classification_type": "U",
        "meta_norad_cat_id": 37312,
        "meta_element_set_no": 999,
        "meta_rev_at_epoch": 86110,
        "meta_bstar": 0.00057614872,
        "meta_mean_motion_dot": 2.035e-05,
        "meta_mean_motion_ddot": 0,
        "tle_line1": "1 37312U 93036BKC 25343.02458328  .00002035  00000+0  57615-3 0  9992",
        "tle_line2": "2 37312  74.0311 211.1150 0018285 314.7028  45.2640 14.46107555861109"
      },
      "geometry": {
        "type": "Point",
        "coordinates": [
          163.39569625067014,
          -67.40824491614808
        ]
      }
    },
    {
      "type": "Feature",
      "properties": {
        "norad_id": 37316,
        "name": "COSMOS 2251 DEB",
        "group": "cosmos-2251-debris",
        "lat": -50.76098045224503,
        "lon": -135.47176631137228,
        "alt_km": 606.706476969216,
        "timestamp": "2025-12-11T07:02:24.128572+00:00",
        "meta_object_name": "COSMOS 2251 DEB",
        "meta_object_id": "1993-036BKG",
        "meta_epoch": "2025-12-10T20:21:36.803232",
        "meta_mean_motion": 14.94359882,
        "meta_eccentricity": 0.0029452,
        "meta_inclination": 74.02,
        "meta_ra_of_asc_node": 24.8845,
        "meta_arg_of_pericenter": 93.8539,
        "meta_mean_anomaly": 266.6013,
        "meta_ephemeris_type": 0,
        "meta_classification_type": "U",
        "meta_norad_cat_id": 37316,
        "meta_element_set_no": 999,
        "meta_rev_at_epoch": 86115,
        "meta_bstar": 0.003033753,
        "meta_mean_motion_dot": 0.00033042,
        "meta_mean_motion_ddot": 0,
        "tle_line1": "1 37316U 93036BKG 25344.84834263  .00033042  00000+0  30338-2 0  9997",
        "tle_line2": "2 37316  74.0200  24.8845 0029452  93.8539 266.6013 14.94359882861153"
      },
      "geometry": {
        "type": "Point",
        "coordinates": [
          -135.47176631137228,
          -50.76098045224503
        ]
      }
    }
  ]
}